[Satellite]
VERSION=1.1
NAME=OKEAN-3
NICKNAME=OKEAN-3
TLE1=1 21397U 91039A   22342.44332832  .00001715  00000+0  15716-3 0  9992
TLE2=2 21397  82.5225  36.9049 0017845  27.2221 332.9931 14.94221347687154
STATUS=0
